GLOBALSTAR M068 [-]     
1 32266U 07048D   18290.07520500 -.00000094  00000-0  54276-4 0  9999
2 32266  51.9873 164.2182 0001570 106.3916  42.1464 12.62699053510209
GLOBALSTAR M079 [+]     
1 37188U 10054A   18289.73349451 -.00000099  00000-0  28194-4 0  9998
2 37188  52.0061 353.7221 0000183  53.0122  97.7295 12.62268511369080
GLOBALSTAR M074 [+]     
1 37189U 10054B   18289.76156123 -.00000094  00000-0  55079-4 0  9991
2 37189  52.0038 353.3366 0000193 352.8825 166.6322 12.62262965369569
GLOBALSTAR M076 [+]     
1 37190U 10054C   18290.23714093 -.00000095  00000-0  50470-4 0  9994
2 37190  52.0052 351.8346 0000438  13.3953  27.3641 12.62273595369637
GLOBALSTAR M077 [+]     
1 37191U 10054D   18289.60559016 -.00000094  00000-0  55219-4 0  9991
2 37191  52.0073 309.9201 0000480  29.0027  81.9785 12.62261854369830
GLOBALSTAR M075 [+]     
1 37192U 10054E   18289.87986037 -.00000108  00000-0 -21677-4 0  9996
2 37192  51.9970  36.5232 0000444  56.3708 101.0924 12.62261684368672
GLOBALSTAR M073 [+]     
1 37193U 10054F   18289.64277324 -.00000094  00000-0  53465-4 0  9997
2 37193  52.0060 309.2281 0000474  61.8714  97.6413 12.62265287370309
GLOBALSTAR M083 [+]     
1 37739U 11033A   18289.49682108 -.00000085  00000-0  10444-3 0  9993
2 37739  51.9849 261.7274 0000244  94.2869  61.6704 12.62264125339464
GLOBALSTAR M088 [+]     
1 37740U 11033B   18290.17178578 -.00000100  00000-0  22977-4 0  9996
2 37740  51.9720 167.2178 0000424  68.7935  36.1578 12.62256798335174
GLOBALSTAR M091 [+]     
1 37741U 11033C   18290.02471451 -.00000098  00000-0  31322-4 0  9997
2 37741  51.9978 126.8562 0000637  90.5810   4.8583 12.62268316335918
GLOBALSTAR M085 [+]     
1 37742U 11033D   18289.61147154 -.00000104  00000-0 -16667-5 0  9996
2 37742  51.9862  81.3003 0000634 111.4286 326.9653 12.62261352336609
GLOBALSTAR M081 [+]     
1 37743U 11033E   18289.97051358 -.00000119  00000-0 -82307-4 0  9995
2 37743  51.9959  81.4945 0000288  90.6394  58.6195 12.62266199336688
GLOBALSTAR M089 [+]     
1 37744U 11033F   18290.15028500 -.00000118  00000-0 -76992-4 0  9993
2 37744  51.9953  35.6320 0000737  88.8062 337.8428 12.62264429337429
GLOBALSTAR M084 [+]     
1 38040U 11080A   18290.17328008 -.00000090  00000-0  74598-4 0  9991
2 38040  52.0000 261.5776 0000855  57.4582  53.9055 12.62263262315432
GLOBALSTAR M080 [+]     
1 38041U 11080B   18289.97178439 -.00000095  00000-0  49411-4 0  9990
2 38041  52.0051 262.9422 0000876  51.2501 343.7625 12.62267242315332
GLOBALSTAR M082 [+]     
1 38042U 11080C   18290.16781144 -.00000092  00000-0  65549-4 0  9994
2 38042  52.0070 217.5362 0000379  81.8335  65.1924 12.62269471316159
GLOBALSTAR M092 [+]     
1 38043U 11080D   18289.58841340 -.00000096  00000-0  41744-4 0  9999
2 38043  52.0086 309.5307 0000649  84.9891  67.8119 12.62267490314533
GLOBALSTAR M090 [+]     
1 38044U 11080E   18289.94054625 -.00000093  00000-0  57682-4 0  9997
2 38044  51.9880 215.1760 0000575  70.9548   2.4669 12.62268332316073
GLOBALSTAR M086 [+]     
1 38045U 11080F   18289.96761845 -.00000106  00000-0 -11102-4 0  9992
2 38045  51.9894 215.4556 0001594   7.8549  69.2589 12.62268518316020
GLOBALSTAR M097 [+]     
1 39072U 13005A   18289.89828554 -.00000099  00000-0  27404-4 0  9997
2 39072  52.0027 127.7240 0000479  63.8231 296.2685 12.62269517263342
GLOBALSTAR M093 [+]     
1 39073U 13005B   18289.87146351 -.00000105  00000-0 -71318-5 0  9997
2 39073  51.9790 125.0117 0000277  96.0250 264.0648 12.62262928263304
GLOBALSTAR M094 [+]     
1 39074U 13005C   18289.79253025 -.00000103  00000-0  64278-5 0  9990
2 39074  51.9980  37.1970 0000308  63.6979 296.3920 12.62247205264818
GLOBALSTAR M096 [+]     
1 39075U 13005D   18289.88475488 -.00000100  00000-0  18421-4 0  9995
2 39075  52.0068  83.5246 0000473  97.7547 262.3373 12.62263537264070
GLOBALSTAR M078 [+]     
1 39076U 13005E   18289.90486849 -.00000148  00000-0 -24535-3 0  9997
2 39076  51.9867 171.0534 0001871 176.9251 183.1627 12.62037435262586
GLOBALSTAR M095 [+]     
1 39077U 13005F   18289.88471602 -.00000093  00000-0  58683-4 0  9996
2 39077  51.9788 169.7657 0000601 132.6326 227.4591 12.62260804262569
